CCSDS_OMM_VERS = 2.0
CREATION_DATE  = 
ORIGINATOR     = 

OBJECT_NAME    = KUIPER-00129
OBJECT_ID      = 2025-228M
CENTER_NAME    = EARTH
REF_FRAME      = TEME
TIME_SYSTEM    = UTC
MEAN_ELEMENT_THEORY = SGP/SGP4

EPOCH          = 2025-11-06T18:47:01.303008
MEAN_MOTION    = 15.36535026
ECCENTRICITY   = .0009584
INCLINATION    = 51.8780
RA_OF_ASC_NODE = 193.8093
ARG_OF_PERICENTER = 218.5310
MEAN_ANOMALY   = 141.4994

EPHEMERIS_TYPE = 0
CLASSIFICATION_TYPE = U
NORAD_CAT_ID   = 65958
ELEMENT_SET_NO = 999
REV_AT_EPOCH   = 489
BSTAR          = .53446E-1
MEAN_MOTION_DOT = .2156696E-1
MEAN_MOTION_DDOT = 0

CCSDS_OMM_VERS = 2.0
CREATION_DATE  = 
ORIGINATOR     = 

OBJECT_NAME    = KUIPER-00130
OBJECT_ID      = 2025-228N
CENTER_NAME    = EARTH
REF_FRAME      = TEME
TIME_SYSTEM    = UTC
MEAN_ELEMENT_THEORY = SGP/SGP4

EPOCH          = 2025-11-06T18:52:14.355264
MEAN_MOTION    = 15.34749160
ECCENTRICITY   = .0005089
INCLINATION    = 51.8776
RA_OF_ASC_NODE = 193.8254
ARG_OF_PERICENTER = 230.9093
MEAN_ANOMALY   = 129.1441

EPHEMERIS_TYPE = 0
CLASSIFICATION_TYPE = U
NORAD_CAT_ID   = 65959
ELEMENT_SET_NO = 999
REV_AT_EPOCH   = 489
BSTAR          = .13448E-2
MEAN_MOTION_DOT = .45905E-3
MEAN_MOTION_DDOT = 0

CCSDS_OMM_VERS = 2.0
CREATION_DATE  = 
ORIGINATOR     = 

OBJECT_NAME    = KUIPER-00134
OBJECT_ID      = 2025-228P
CENTER_NAME    = EARTH
REF_FRAME      = TEME
TIME_SYSTEM    = UTC
MEAN_ELEMENT_THEORY = SGP/SGP4

EPOCH          = 2025-11-06T18:54:32.393952
MEAN_MOTION    = 15.34643896
ECCENTRICITY   = .0005013
INCLINATION    = 51.8781
RA_OF_ASC_NODE = 193.8356
ARG_OF_PERICENTER = 235.2395
MEAN_ANOMALY   = 124.8119

EPHEMERIS_TYPE = 0
CLASSIFICATION_TYPE = U
NORAD_CAT_ID   = 65960
ELEMENT_SET_NO = 999
REV_AT_EPOCH   = 489
BSTAR          = .65298E-3
MEAN_MOTION_DOT = .21947E-3
MEAN_MOTION_DDOT = 0

CCSDS_OMM_VERS = 2.0
CREATION_DATE  = 
ORIGINATOR     = 

OBJECT_NAME    = KUIPER-00135
OBJECT_ID      = 2025-228Q
CENTER_NAME    = EARTH
REF_FRAME      = TEME
TIME_SYSTEM    = UTC
MEAN_ELEMENT_THEORY = SGP/SGP4

EPOCH          = 2025-11-06T18:54:04.461696
MEAN_MOTION    = 15.34631824
ECCENTRICITY   = .0004927
INCLINATION    = 51.8788
RA_OF_ASC_NODE = 193.8431
ARG_OF_PERICENTER = 222.4735
MEAN_ANOMALY   = 137.5870

EPHEMERIS_TYPE = 0
CLASSIFICATION_TYPE = U
NORAD_CAT_ID   = 65961
ELEMENT_SET_NO = 999
REV_AT_EPOCH   = 489
BSTAR          = .774E-3
MEAN_MOTION_DOT = .26089E-3
MEAN_MOTION_DDOT = 0

CCSDS_OMM_VERS = 2.0
CREATION_DATE  = 
ORIGINATOR     = 

OBJECT_NAME    = KUIPER-00136
OBJECT_ID      = 2025-228R
CENTER_NAME    = EARTH
REF_FRAME      = TEME
TIME_SYSTEM    = UTC
MEAN_ELEMENT_THEORY = SGP/SGP4

EPOCH          = 2025-11-06T18:44:51.676224
MEAN_MOTION    = 15.34966091
ECCENTRICITY   = .000567
INCLINATION    = 51.8788
RA_OF_ASC_NODE = 193.7998
ARG_OF_PERICENTER = 216.7287
MEAN_ANOMALY   = 143.3311

EPHEMERIS_TYPE = 0
CLASSIFICATION_TYPE = U
NORAD_CAT_ID   = 65962
ELEMENT_SET_NO = 999
REV_AT_EPOCH   = 489
BSTAR          = -.20435E-4
MEAN_MOTION_DOT = -.1087E-4
MEAN_MOTION_DDOT = 0

CCSDS_OMM_VERS = 2.0
CREATION_DATE  = 
ORIGINATOR     = 

OBJECT_NAME    = KUIPER-00137
OBJECT_ID      = 2025-228S
CENTER_NAME    = EARTH
REF_FRAME      = TEME
TIME_SYSTEM    = UTC
MEAN_ELEMENT_THEORY = SGP/SGP4

EPOCH          = 2025-11-06T18:53:01.432032
MEAN_MOTION    = 15.34658731
ECCENTRICITY   = .0004876
INCLINATION    = 51.8794
RA_OF_ASC_NODE = 193.8369
ARG_OF_PERICENTER = 229.3715
MEAN_ANOMALY   = 130.6847

EPHEMERIS_TYPE = 0
CLASSIFICATION_TYPE = U
NORAD_CAT_ID   = 65963
ELEMENT_SET_NO = 999
REV_AT_EPOCH   = 489
BSTAR          = .63597E-3
MEAN_MOTION_DOT = .21373E-3
MEAN_MOTION_DDOT = 0

CCSDS_OMM_VERS = 2.0
CREATION_DATE  = 
ORIGINATOR     = 

OBJECT_NAME    = KUIPER-00138
OBJECT_ID      = 2025-228T
CENTER_NAME    = EARTH
REF_FRAME      = TEME
TIME_SYSTEM    = UTC
MEAN_ELEMENT_THEORY = SGP/SGP4

EPOCH          = 2025-11-06T18:57:10.110240
MEAN_MOTION    = 15.34397812
ECCENTRICITY   = .0006057
INCLINATION    = 51.8784
RA_OF_ASC_NODE = 193.8493
ARG_OF_PERICENTER = 242.8173
MEAN_ANOMALY   = 117.2196

EPHEMERIS_TYPE = 0
CLASSIFICATION_TYPE = U
NORAD_CAT_ID   = 65964
ELEMENT_SET_NO = 999
REV_AT_EPOCH   = 489
BSTAR          = .1204E-2
MEAN_MOTION_DOT = .40574E-3
MEAN_MOTION_DDOT = 0

CCSDS_OMM_VERS = 2.0
CREATION_DATE  = 
ORIGINATOR     = 

OBJECT_NAME    = KUIPER-00140
OBJECT_ID      = 2025-228U
CENTER_NAME    = EARTH
REF_FRAME      = TEME
TIME_SYSTEM    = UTC
MEAN_ELEMENT_THEORY = SGP/SGP4

EPOCH          = 2025-11-06T18:58:05.105568
MEAN_MOTION    = 15.34452662
ECCENTRICITY   = .0005244
INCLINATION    = 51.8793
RA_OF_ASC_NODE = 193.8574
ARG_OF_PERICENTER = 242.8291
MEAN_ANOMALY   = 117.2160

EPHEMERIS_TYPE = 0
CLASSIFICATION_TYPE = U
NORAD_CAT_ID   = 65965
ELEMENT_SET_NO = 999
REV_AT_EPOCH   = 489
BSTAR          = .17429E-3
MEAN_MOTION_DOT = .553E-4
MEAN_MOTION_DDOT = 0

CCSDS_OMM_VERS = 2.0
CREATION_DATE  = 
ORIGINATOR     = 

OBJECT_NAME    = KUIPER-00141
OBJECT_ID      = 2025-228V
CENTER_NAME    = EARTH
REF_FRAME      = TEME
TIME_SYSTEM    = UTC
MEAN_ELEMENT_THEORY = SGP/SGP4

EPOCH          = 2025-11-06T18:48:46.277280
MEAN_MOTION    = 15.34882079
ECCENTRICITY   = .0005622
INCLINATION    = 51.8782
RA_OF_ASC_NODE = 193.8105
ARG_OF_PERICENTER = 221.0772
MEAN_ANOMALY   = 138.9791

EPHEMERIS_TYPE = 0
CLASSIFICATION_TYPE = U
NORAD_CAT_ID   = 65966
ELEMENT_SET_NO = 999
REV_AT_EPOCH   = 489
BSTAR          = .65569E-3
MEAN_MOTION_DOT = .22212E-3
MEAN_MOTION_DDOT = 0

CCSDS_OMM_VERS = 2.0
CREATION_DATE  = 
ORIGINATOR     = 

OBJECT_NAME    = KUIPER-00146
OBJECT_ID      = 2025-228W
CENTER_NAME    = EARTH
REF_FRAME      = TEME
TIME_SYSTEM    = UTC
MEAN_ELEMENT_THEORY = SGP/SGP4

EPOCH          = 2025-11-06T18:49:31.424736
MEAN_MOTION    = 15.34851215
ECCENTRICITY   = .0005545
INCLINATION    = 51.8792
RA_OF_ASC_NODE = 193.8216
ARG_OF_PERICENTER = 222.7915
MEAN_ANOMALY   = 137.2639

EPHEMERIS_TYPE = 0
CLASSIFICATION_TYPE = U
NORAD_CAT_ID   = 65967
ELEMENT_SET_NO = 999
REV_AT_EPOCH   = 489
BSTAR          = .62983E-3
MEAN_MOTION_DOT = .21297E-3
MEAN_MOTION_DDOT = 0

CCSDS_OMM_VERS = 2.0
CREATION_DATE  = 
ORIGINATOR     = 

OBJECT_NAME    = KUIPER-00149
OBJECT_ID      = 2025-228X
CENTER_NAME    = EARTH
REF_FRAME      = TEME
TIME_SYSTEM    = UTC
MEAN_ELEMENT_THEORY = SGP/SGP4

EPOCH          = 2025-11-06T18:45:27.065664
MEAN_MOTION    = 15.35034882
ECCENTRICITY   = .0005498
INCLINATION    = 51.8783
RA_OF_ASC_NODE = 193.7977
ARG_OF_PERICENTER = 219.8750
MEAN_ANOMALY   = 140.1833

EPHEMERIS_TYPE = 0
CLASSIFICATION_TYPE = U
NORAD_CAT_ID   = 65968
ELEMENT_SET_NO = 999
REV_AT_EPOCH   = 489
BSTAR          = .98136E-3
MEAN_MOTION_DOT = .3365E-3
MEAN_MOTION_DDOT = 0

CCSDS_OMM_VERS = 2.0
CREATION_DATE  = 
ORIGINATOR     = 

OBJECT_NAME    = KUIPER-00154
OBJECT_ID      = 2025-228Y
CENTER_NAME    = EARTH
REF_FRAME      = TEME
TIME_SYSTEM    = UTC
MEAN_ELEMENT_THEORY = SGP/SGP4

EPOCH          = 2025-11-06T18:43:55.200000
MEAN_MOTION    = 15.35096978
ECCENTRICITY   = .0005734
INCLINATION    = 51.8780
RA_OF_ASC_NODE = 193.7909
ARG_OF_PERICENTER = 216.6718
MEAN_ANOMALY   = 143.3876

EPHEMERIS_TYPE = 0
CLASSIFICATION_TYPE = U
NORAD_CAT_ID   = 65969
ELEMENT_SET_NO = 999
REV_AT_EPOCH   = 489
BSTAR          = .65599E-3
MEAN_MOTION_DOT = .22378E-3
MEAN_MOTION_DDOT = 0

