KUIPER-00129            
1 65958U 25228M   25310.78265397  .02156696  00000+0  53446-1 0  9997
2 65958  51.8780 193.8093 0009584 218.5310 141.4994 15.36535026  4892
KUIPER-00130            
1 65959U 25228N   25310.78627726  .00045905  00000+0  13448-2 0  9993
2 65959  51.8776 193.8254 0005089 230.9093 129.1441 15.34749160  4893
KUIPER-00134            
1 65960U 25228P   25310.78787493  .00021947  00000+0  65298-3 0  9994
2 65960  51.8781 193.8356 0005013 235.2395 124.8119 15.34643896  4897
KUIPER-00135            
1 65961U 25228Q   25310.78755164  .00026089  00000+0  77400-3 0  9995
2 65961  51.8788 193.8431 0004927 222.4735 137.5870 15.34631824  4891
KUIPER-00136            
1 65962U 25228R   25310.78115366 -.00001087  00000+0 -20435-4 0  9990
2 65962  51.8788 193.7998 0005670 216.7287 143.3311 15.34966091  4895
KUIPER-00137            
1 65963U 25228S   25310.78682213  .00021373  00000+0  63597-3 0  9994
2 65963  51.8794 193.8369 0004876 229.3715 130.6847 15.34658731  4891
KUIPER-00138            
1 65964U 25228T   25310.78970035  .00040574  00000+0  12040-2 0  9997
2 65964  51.8784 193.8493 0006057 242.8173 117.2196 15.34397812  4898
KUIPER-00140            
1 65965U 25228U   25310.79033687  .00005530  00000+0  17429-3 0  9992
2 65965  51.8793 193.8574 0005244 242.8291 117.2160 15.34452662  4893
KUIPER-00141            
1 65966U 25228V   25310.78386895  .00022212  00000+0  65569-3 0  9998
2 65966  51.8782 193.8105 0005622 221.0772 138.9791 15.34882079  4894
KUIPER-00146            
1 65967U 25228W   25310.78439149  .00021297  00000+0  62983-3 0  9999
2 65967  51.8792 193.8216 0005545 222.7915 137.2639 15.34851215  4891
KUIPER-00149            
1 65968U 25228X   25310.78156326  .00033650  00000+0  98136-3 0  9998
2 65968  51.8783 193.7977 0005498 219.8750 140.1833 15.35034882  4899
KUIPER-00154            
1 65969U 25228Y   25310.78050000  .00022378  00000+0  65599-3 0  9993
2 65969  51.8780 193.7909 0005734 216.6718 143.3876 15.35096978  4890
